OBJECT_NAME,OBJECT_ID,EPOCH,MEAN_MOTION,ECCENTRICITY,INCLINATION,RA_OF_ASC_NODE,ARG_OF_PERICENTER,MEAN_ANOMALY,EPHEMERIS_TYPE,CLASSIFICATION_TYPE,NORAD_CAT_ID,ELEMENT_SET_NO,REV_AT_EPOCH,BSTAR,MEAN_MOTION_DOT,MEAN_MOTION_DDOT
GOMX-1,2013-066Q,2026-05-09T03:58:44.726880,14.69307964,.0128201,97.6510,332.0883,202.2551,157.3062,0,U,39430,999,66418,.21822E-3,.1409E-4,0
CUBEBUG-2 (LO-74),2013-066AA,2026-05-09T03:21:21.019104,14.93475771,.0058628,97.8886,77.9695,155.2950,205.1098,0,U,39440,999,67116,.30301E-3,.3235E-4,0
NEE-02 KRYSAOR,2013-066AB,2026-05-09T02:25:19.144992,14.86475817,.0065714,97.8876,68.6041,196.6639,163.2418,0,U,39441,999,67039,.15085E-3,.1328E-4,0
FUNCUBE-1 (AO-73),2013-066AE,2026-05-08T20:56:44.742912,15.08977950,.0035903,97.8254,99.5196,340.3248,19.6593,0,U,39444,999,67373,.50333483E-3,.8007E-4,0
UWE-3,2013-066AG,2026-05-08T20:12:38.683296,14.96703614,.00511901,97.8687,84.6693,90.6298,270.0789,0,U,39446,999,67169,.27466211E-3,.3158E-4,0
SMDC ONE 2.4,2013-072H,2026-05-09T04:55:48.910080,15.17460536,.0139345,120.4872,201.6821,336.7112,22.7694,0,U,39469,999,11191,.32877E-3,.8134E-4,0
COSMOS 2488 (RODNIK-S 7),2013-076A,2026-05-09T03:47:53.860992,12.42905116,.0019794,82.4858,193.0095,177.0220,183.0981,0,U,39483,999,56104,.12736E-2,.186E-5,0
COSMOS 2489 (RODNIK-S 8),2013-076B,2026-05-09T03:11:00.717216,12.42879954,.0021624,82.4896,194.3910,177.2792,182.8409,0,U,39484,999,56109,.13004E-2,.19E-5,0
COSMOS 2490 (RODNIK-S 9),2013-076C,2026-05-09T04:26:20.872320,12.42876923,.0021401,82.4841,192.4432,192.9018,167.1516,0,U,39485,999,56103,.73683E-3,.112E-5,0
KAZEOSAT 1,2014-024A,2026-05-09T03:59:09.052800,14.42064005,.0001554,98.3208,202.5807,94.2803,265.8564,0,U,39731,999,63293,.12453E-4,-.2E-7,0
COSMOS 2496 (RODNIK-S 10),2014-028A,2026-05-09T05:21:11.524320,12.42876298,.0020296,82.4425,133.1379,160.4676,199.7185,0,U,39761,999,54267,-.87729E-3,-.112E-5,0
COSMOS 2497 (RODNIK-S 11),2014-028B,2026-05-09T02:50:23.409600,12.42892392,.0020924,82.4474,134.8782,155.7810,204.4257,0,U,39762,999,54266,-.34863E-3,-.38E-6,0
COSMOS 2498 (RODNIK-S 12),2014-028C,2026-05-09T04:17:56.622912,12.42978788,.0021668,82.4434,133.3442,155.4503,204.7613,0,U,39763,999,54270,-.60559E-3,-.74E-6,0
HODOYOSHI-4,2014-033B,2026-05-09T04:02:02.720256,14.88035870,.0025232,97.5461,315.8768,75.6069,284.7946,0,U,40011,999,64300,.50772E-4,.417E-5,0
UNISAT-6,2014-033C,2026-05-08T23:59:12.366816,14.88018824,.0044935,97.7836,282.4186,195.9820,163.9982,0,U,40012,999,64033,.27021E-3,.2471E-4,0
DEIMOS-2,2014-033D,2026-05-09T04:39:58.817664,14.93615614,.0002291,97.5870,5.0448,88.7789,271.3694,0,U,40013,999,63190,.12257E-3,.1239E-4,0
BUGSAT-1 (TITA),2014-033E,2026-05-09T05:01:26.633856,15.15189557,.0027133,98.0402,219.4948,315.8334,44.0730,0,U,40014,999,64993,.21872E-3,.4066E-4,0
SAUDISAT 4,2014-033G,2026-05-08T23:02:51.908064,14.79486720,.0044383,97.7531,276.4647,199.3097,160.6435,0,U,40016,999,64027,.91856E-4,.645E-5,0
APRIZESAT 9,2014-033J,2026-05-09T02:40:38.033184,14.74169065,.0065366,97.9003,263.2778,326.9637,32.7495,0,U,40018,999,63780,.63154E-4,.377E-5,0
BRITE-CA1 (TORONTO),2014-033L,2026-05-09T02:31:16.745088,14.72623560,.0079549,97.9683,258.7677,42.8510,317.8860,0,U,40020,999,63646,.1084E-3,.672E-5,0
DUCHIFAT-1,2014-033M,2026-05-09T02:33:51.154848,15.57905226,.0005614,98.0510,183.0115,196.6222,163.4848,0,U,40021,999,64965,.93897E-3,.70523E-3,0
NANOSATC-BR1,2014-033Q,2026-05-09T01:12:47.914848,15.30233592,.0002231,98.0758,158.0066,346.5210,13.5969,0,U,40024,999,64799,.50892E-3,.14814E-3,0
