GOMX-1                  
1 39430U 13066Q   26129.16579545  .00001409  00000+0  21822-3 0  9998
2 39430  97.6510 332.0883 0128201 202.2551 157.3062 14.69307964664185
CUBEBUG-2 (LO-74)       
1 39440U 13066AA  26129.13982661  .00003235  00000+0  30301-3 0  9994
2 39440  97.8886  77.9695 0058628 155.2950 205.1098 14.93475771671161
NEE-02 KRYSAOR          
1 39441U 13066AB  26129.10091603  .00001328  00000+0  15085-3 0  9992
2 39441  97.8876  68.6041 0065714 196.6639 163.2418 14.86475817670397
FUNCUBE-1 (AO-73)       
1 39444U 13066AE  26128.87274008  .00008007  00000+0  50333-3 0  9996
2 39444  97.8254  99.5196 0035903 340.3248  19.6593 15.08977950673734
UWE-3                   
1 39446U 13066AG  26128.84211439  .00003158  00000+0  27466-3 0  9997
2 39446  97.8687  84.6693 0051190  90.6298 270.0789 14.96703614671692
SMDC ONE 2.4            
1 39469U 13072H   26129.20542720  .00008134  00000+0  32877-3 0  9991
2 39469 120.4872 201.6821 0139345 336.7112  22.7694 15.17460536111916
COSMOS 2488 (RODNIK-S 7)
1 39483U 13076A   26129.15826228  .00000186  00000+0  12736-2 0  9993
2 39483  82.4858 193.0095 0019794 177.0220 183.0981 12.42905116561047
COSMOS 2489 (RODNIK-S 8)
1 39484U 13076B   26129.13264719  .00000190  00000+0  13004-2 0  9997
2 39484  82.4896 194.3910 0021624 177.2792 182.8409 12.42879954561098
COSMOS 2490 (RODNIK-S 9)
1 39485U 13076C   26129.18496380  .00000112  00000+0  73683-3 0  9998
2 39485  82.4841 192.4432 0021401 192.9018 167.1516 12.42876923561037
KAZEOSAT 1              
1 39731U 14024A   26129.16607700 -.00000002  00000+0  12453-4 0  9992
2 39731  98.3208 202.5807 0001554  94.2803 265.8564 14.42064005632935
COSMOS 2496 (RODNIK-S *)
1 39761U 14028A   26129.22305005 -.00000112  00000+0 -87729-3 0  9999
2 39761  82.4425 133.1379 0020296 160.4676 199.7185 12.42876298542672
COSMOS 2497 (RODNIK-S *)
1 39762U 14028B   26129.11832650 -.00000038  00000+0 -34863-3 0  9997
2 39762  82.4474 134.8782 0020924 155.7810 204.4257 12.42892392542664
COSMOS 2498 (RODNIK-S *)
1 39763U 14028C   26129.17912758 -.00000074  00000+0 -60559-3 0  9993
2 39763  82.4434 133.3442 0021668 155.4503 204.7613 12.42978788542708
HODOYOSHI-4             
1 40011U 14033B   26129.16808704  .00000417  00000+0  50772-4 0  9997
2 40011  97.5461 315.8768 0025232  75.6069 284.7946 14.88035870643002
UNISAT-6                
1 40012U 14033C   26128.99944869  .00002471  00000+0  27021-3 0  9993
2 40012  97.7836 282.4186 0044935 195.9820 163.9982 14.88018824640337
DEIMOS-2                
1 40013U 14033D   26129.19443076  .00001239  00000+0  12257-3 0  9997
2 40013  97.5870   5.0448 0002291  88.7789 271.3694 14.93615614631909
BUGSAT-1 (TITA)         
1 40014U 14033E   26129.20933604  .00004066  00000+0  21872-3 0  9995
2 40014  98.0402 219.4948 0027133 315.8334  44.0730 15.15189557649930
SAUDISAT 4              
1 40016U 14033G   26128.96032301  .00000645  00000+0  91856-4 0  9992
2 40016  97.7531 276.4647 0044383 199.3097 160.6435 14.79486720640273
APRIZESAT 9             
1 40018U 14033J   26129.11155131  .00000377  00000+0  63154-4 0  9991
2 40018  97.9003 263.2778 0065366 326.9637  32.7495 14.74169065637807
BRITE-CA1 (TORONTO)     
1 40020U 14033L   26129.10505492  .00000672  00000+0  10840-3 0  9993
2 40020  97.9683 258.7677 0079549  42.8510 317.8860 14.72623560636460
DUCHIFAT-1              
1 40021U 14033M   26129.10684207  .00070523  00000+0  93897-3 0  9991
2 40021  98.0510 183.0115 0005614 196.6222 163.4848 15.57905226649651
NANOSATC-BR1            
1 40024U 14033Q   26129.05055457  .00014814  00000+0  50892-3 0  9996
2 40024  98.0758 158.0066 0002231 346.5210  13.5969 15.30233592647995
